observation_url,id,row_id,username,license,license_url,lat,lng,geoprivacy,hotspot,event,observed,country,county,state,municipality,postcode,observation_notes,Telescope_aperture_in_inches,Eyepiece_focal_length_used_(millimeters),Object_being_photographed,Camera_F_stop_(e_g__1_7),Exposure_speed_(decimal_seconds),ISO_number,Upload_an_image,Device_Model,Image 1,Image 2,Image 3,Image 4
"https://www.anecdata.org/posts/view/268549","268549","622218","qordilya","Creative Commons Attribution 4.0 International License","https://creativecommons.org/licenses/by/4.0/",44.115068,-79.510315,"false","","","2024-07-21 02:57:03+0000","Canada","York Region","Ontario","East Gwillimbury",null,"","`0.124","76mm","The Moon","2.4","1/60","50","/img/uploads/posts/2024-07-25/_apu_2024-07-25_66a28a839c4e7Moon-JPG.jpeg,/img/uploads/posts/2024-07-25/_apu_2024-07-25_66a28ab4b1c52Moon-2-JPG.jpeg,/img/uploads/posts/2024-07-25/_apu_2024-07-25_66a28a839c4e7Moon-JPG.jpeg","Samsung S20 FE","","","",""
"https://www.anecdata.org/posts/view/268520","268520","622043","m","Creative Commons Attribution 4.0 International License","https://creativecommons.org/licenses/by/4.0/",44.087585,-78.75,"false","","","2024-07-25 00:35:46+0000","Canada","Durham Region","Ontario","Scugog",null,"","iphone","Back camera","moon","zoom","n/a","n/a","/img/uploads/posts/2024-07-25/_apu_2024-07-25_1721882198_photo-4-jpg-1.jpeg","Apple iPhone14,7","","","",""
"https://www.anecdata.org/posts/view/268455","268455","621795","m","Creative Commons Attribution 4.0 International License","https://creativecommons.org/licenses/by/4.0/",44.087585,-78.75,"false","","","2024-07-24 00:38:34+0000","Canada","Durham Region","Ontario","Scugog",null,"","Iphone Zoom","zoom","Moon","camera","n/a","n/a","/img/uploads/posts/2024-07-24/_apu_2024-07-24_1721795967_photo-3-jpg-1.jpeg","Apple iPhone14,7","","","",""
"https://www.anecdata.org/posts/view/268357","268357","621493","m","Creative Commons Attribution 4.0 International License","https://creativecommons.org/licenses/by/4.0/",44.087585,-78.75,"false","","","2024-07-23 00:30:17+0000","Canada","Durham Region","Ontario","Scugog",null,"","iphone","zoom","moon","iphone camera","n/a","n/a","/img/uploads/posts/2024-07-23/_apu_2024-07-23_1721709114_photo-1-jpg-1.jpeg","Apple iPhone14,7","","","",""
"https://www.anecdata.org/posts/view/265295","265295","611705","kimdonghyeon","Creative Commons Attribution 4.0 International License","https://creativecommons.org/licenses/by/4.0/",36.822999,127.137624,"false","","","2024-06-19 20:17:16+0000","South Korea",null,null,"Cheonan-si",null,"","10","10","moon","10","4","i don't know","/img/uploads/posts/2024-06-19/_apu_2024-06-19_1718795939_1000011106-1718795899372-jpeg-1.jpeg","samsung SM-F926N","","","",""
"https://www.anecdata.org/posts/view/261173","261173","598277","michaelcreed","Creative Commons Attribution 4.0 International License","https://creativecommons.org/licenses/by/4.0/",40.857708,-73.981247,"false","","","2024-04-22 22:49:54+0000","United States","Bergen County","New Jersey","Fort Lee","`07024","","apertura 8AD","30 mm","Moon 99%","1.7",".60","125","/img/uploads/posts/2024-04-23/_apu_2024-04-23_1713841389_photo-1-jpg-1.jpeg","Apple iPad5,3","","","",""
"https://www.anecdata.org/posts/view/260989","260989","597854","igor","Creative Commons Attribution 4.0 International License","https://creativecommons.org/licenses/by/4.0/",46.545704,15.657513,"false","","","2024-04-20 20:36:13+0000","Slovenia",null,null,"Maribor",null,"","20 cm Newtonian f/4","Baader Hyperion 5 mm","Moon","1.53","1/1500","160","/img/uploads/posts/2024-04-21/_apu_2024-04-21_6624ae72262cd20240420_220328-2-jpg.jpeg","Samsung S23 Ultra","","","",""
"https://www.anecdata.org/posts/view/260988","260988","597853","igor","Creative Commons Attribution 4.0 International License","https://creativecommons.org/licenses/by/4.0/",46.545696,15.657513,"false","","","2024-04-20 20:32:38+0000","Slovenia",null,null,"Maribor",null,"","20 cm Newtonian","25 mm","Moon","1.53","1/2000","160","/img/uploads/posts/2024-04-20/_apu_2024-04-20_6624272ce91ac20240420_220733-2-jpg.jpeg","Samsung S23 Ultra","","","",""
"https://www.anecdata.org/posts/view/260617","260617","596853","luizaarievilo","Creative Commons Attribution 4.0 International License","https://creativecommons.org/licenses/by/4.0/",-22.848729,-42.060582,"false","","","2024-04-15 22:29:23+0000","Brazil",null,"Rio de Janeiro",null,null,"moon","samsung s22ultra","100x zoom","moon","samsung","-","-","/img/uploads/posts/2024-04-16/_apu_2024-04-16_1713231036_photo-1-1.jpg","Apple iPhone12,1","","","",""
"https://www.anecdata.org/posts/view/260493","260493","596483","igor","Creative Commons Attribution 4.0 International License","https://creativecommons.org/licenses/by/4.0/",46.545731,15.657519,"false","","","2024-04-14 08:18:20+0000","Slovenia",null,null,"Maribor",null,"","SW Maksutov-Cassegrain 90mm f=1250mm","17mm","Moon april 12th 2024","f/1.7","1/8 sec","100","/img/uploads/posts/2024-04-14/_apu_2024-04-14_661b924dc61e3Moon_20240412-jpg.jpeg","Samsung S23 Ultra","","","",""
"https://www.anecdata.org/posts/view/255079","255079","579735","shreyasnasa","Creative Commons Attribution 4.0 International License","https://creativecommons.org/licenses/by/4.0/",9.721578,76.392746,"false","","","2024-01-17 13:27:04+0000","India","Vaikom","Kerala",null,null,"Sky was a little purple and sky was clear with isolated cloud status 💜💜💜✨️☁️","38","60","Moon and venus","1.8","4","800","","OPPO / CPH2001","/img/uploads/posts/_apu_2024-01-17_65a7d6561a152pick_1705498097836_1000302518.jpg","","",""
"https://www.anecdata.org/posts/view/254938","254938","579089","shreyasnasa","Creative Commons Attribution 4.0 International License","https://creativecommons.org/licenses/by/4.0/",9.721578,76.392746,"false","","","2024-01-14 16:15:04+0000","India","Vaikom","Kerala",null,null,"Purple night sky 💜💜💜","60","20","Moon venus stars","1.8","28","800","","OPPO / CPH2001","/img/uploads/posts/_apu_2024-01-14_65a408f6d181cpick_1705248921363_1000301565.jpg","","",""
"https://www.anecdata.org/posts/view/248273","248273","567386","william_2","Creative Commons Attribution 4.0 International License","https://creativecommons.org/licenses/by/4.0/",35.14368,-85.255782,"false","","","2023-11-23 19:00:29+0000","United States","Hamilton County","Tennessee","Chattanooga",null,"","60mm","26mm","Moon","1.7",".01","100","","60mm Maksutov","/img/uploads/posts/75210-655fa56cdac2d-1.jpg","","",""
"https://www.anecdata.org/posts/view/215261","215261","513436","lourteg","Creative Commons Attribution 4.0 International License","https://creativecommons.org/licenses/by/4.0/",-23.671318,-46.548485,"false","","","2023-08-09 02:12:43+0000","Brazil","Região Metropolitana de São Paulo","São Paulo","Santo André","`09050000","Saturn
80mm f/11 EQ ×200
Bortle 9-8
ND 0.6 filter
Motorola Edge 20 Pro
mp4 9:16 8K-UHD 24fps
227 stacked frames, Siril
GIMP, Snapseed post-processed","3.1","4.5","Saturn","1.9","0","0","","motorola / motorola edge 20 pro","/img/uploads/posts/_apu_2023-08-09_64d2f6c25f0562023-08-08_23-12-59_0_satur0963_stacked20fr.jpg","","",""
"https://www.anecdata.org/posts/view/214830","214830","512294","lourteg","Creative Commons Attribution 4.0 International License","https://creativecommons.org/licenses/by/4.0/",-23.671321,-46.548495,"false","","","2023-08-03 03:01:15+0000","Brazil","Região Metropolitana de São Paulo","São Paulo","Santo André","`09050000","M29
80mm f/11 EQ DRV ×28
Bortle 9-8
108Mp camera
f/1.9 ISO 3200 2sec
270 stacked pics - Siril
GIMP, Snapseed post-processed","3.1","32.0","M29","1.9","2.0","3200","","motorola / motorola edge 20 pro","/img/uploads/posts/_apu_2023-08-04_64cc4f13974232023-08-03_22-06-18_0_IMG_20230803_165905_694.jpg","","",""
"https://www.anecdata.org/posts/view/214384","214384","511295","lourteg","Creative Commons Attribution 4.0 International License","https://creativecommons.org/licenses/by/4.0/",-23.671308,-46.548503,"false","","","2023-07-23 03:15:28+0000","Brazil","Região Metropolitana de São Paulo","São Paulo","Santo André","`09050000","M27
80mm f/11 EQ DRV ×28
Bortle 9-8
108Mp camera
f/1.9 ISO 3200 4sec
132 stacked pics - Siril
GIMP, Snapseed post-processed","3.1","32.0","M27","1.9","4.0","3300","","motorola / motorola edge 20 pro","/img/uploads/posts/_apu_2023-08-01_64c867e3105c12023-07-31_23-03-03_0_dumbbell3b2fr.jpeg","","",""
"https://www.anecdata.org/posts/view/214383","214383","511294","lourteg","Creative Commons Attribution 4.0 International License","https://creativecommons.org/licenses/by/4.0/",-23.671305,-46.548481,"false","","","2023-07-08 03:34:13+0000","Brazil","Região Metropolitana de São Paulo","São Paulo","Santo André","`09050000","M57
4"" f/4 EQ DRV ×40
Bortle 9-8
108Mp camera
f/1.9 ISO 3200 4sec
35 stacked pics - Siril
GIMP, Snapseed post-processed","4.0","10.0","M57","1.9","4.0","3200","","motorola / motorola edge 20 pro","/img/uploads/posts/_apu_2023-08-01_64c8662992eab2023-07-31_22-55-14_0_new_ring23_11_1cf.jpeg","","",""
"https://www.anecdata.org/posts/view/214382","214382","511293","lourteg","Creative Commons Attribution 4.0 International License","https://creativecommons.org/licenses/by/4.0/",-23.67131,-46.548481,"false","","","2023-06-29 04:44:25+0000","Brazil","Região Metropolitana de São Paulo","São Paulo","Santo André","`09050000","Beta Cygni, Albireo
80mm f/11 EQ DRV ×90
Bortle 9-8
108Mp camera
f/1.9 ISO 1600 1/2sec
13 stacked pics - Siril
GIMP, Snapseed post-processed","3.1","6.0","Beta Cygni, Albireo","1.9","`0.5","1600","","motorola / motorola edge 20 pro","/img/uploads/posts/_apu_2023-08-01_64c865186347f2023-07-31_22-51-12_0_albireo_2b2fr.jpg","","",""
"https://www.anecdata.org/posts/view/214381","214381","511292","lourteg","Creative Commons Attribution 4.0 International License","https://creativecommons.org/licenses/by/4.0/",-23.671305,-46.548496,"false","","","2023-06-26 04:01:31+0000","Brazil","Região Metropolitana de São Paulo","São Paulo","Santo André","`09050000","M56
4"" f/4 EQ DRV ×23.5
Bortle 9-8
108Mp camera
f/1.9 ISO 3200 2sec
302 stacked - Siril
GIMP, Snapseed post-processed","4.0","17.0","M56","1.9","2.0","3200","","motorola / motorola edge 20 pro","/img/uploads/posts/_apu_2023-08-01_64c863ed0da522023-07-31_22-44-30_0_m56_2e-03f.jpeg","","",""
"https://www.anecdata.org/posts/view/214379","214379","511290","lourteg","Creative Commons Attribution 4.0 International License","https://creativecommons.org/licenses/by/4.0/",-23.671293,-46.548512,"false","","","2023-06-20 21:42:50+0000","Brazil","Região Metropolitana de São Paulo","São Paulo","Santo André","`09050000","Venus
80mm f/11 EQ DRV ×150
Bortle 9-8
ND 0.6 filter
108Mp camera
f/1.9 ISO 800 1/250sec
70 stacked pics - Siril
GIMP, Snapseed post-processed
skymap - Fourmilab/Your Sky","3.1","6.0","Venus","1.9","`0.004","800","","motorola / motorola edge 20 pro","/img/uploads/posts/_apu_2023-08-01_64c862c102ad22023-07-31_22-38-41_0_venus_aln4-01.jpeg","","",""
"https://www.anecdata.org/posts/view/211786","211786","502398","egbuimtimothyc","Creative Commons Attribution 4.0 International License","https://creativecommons.org/licenses/by/4.0/",0,0,"false","","","2023-06-28 11:12:27+0000","","","","","","","Nil","4.11","Moon","1.6","`0.07","6400","","INFINIX MOBILITY LIMITED / Infinix X663","/img/uploads/posts/_apu_2023-06-28_649c18c0130242023-06-28_12-21-18_0_IMG_20230625_205930_708.jpg","","",""
"https://www.anecdata.org/posts/view/205724","205724","479535","lourteg","Creative Commons Attribution 4.0 International License","https://creativecommons.org/licenses/by/4.0/",-23.671385,-46.548584,"false","","","2023-02-06 05:00:54+0000","Brazil","Região Metropolitana de São Paulo","São Paulo","Santo André","`09050000","Full Moon
80mm f/11 EQ DRV
Bortle 9-8
ND 0.6 filter
Motorola Edge 20 Pro
f/1.9 ISO 800 1/500 sec
20 stacked pics - Siril","3.1","32.0","Full Moon","1.9","`0.002","800","","motorola / motorola edge 20 pro","/img/uploads/posts/_apu_2023-02-11-02-10-14_63e6f906a87b72023-02-10_23-09-07_0_full_moon_c-01.jpeg","","",""
"https://www.anecdata.org/posts/view/205718","205718","479429","lourteg","Creative Commons Attribution 4.0 International License","https://creativecommons.org/licenses/by/4.0/",-23.671375,-46.548515,"false","","","2023-02-08 23:17:41+0000","Brazil","Região Metropolitana de São Paulo","São Paulo","Santo André","`09050000","C/2022 E3 (ZTF)
4"" f/4 EQ DRV ×23.5
Bortle 9-8
108Mp camera
f/1.9 ISO 3200 4sec
406 stacked pics - Siril
GIMP, Snapseed post-processed","4.0","17.0","C/2022 E3 (ZTF)","1.9","4.0","3200","","motorola / motorola edge 20 pro","/img/uploads/posts/_apu_2023-02-10-18-12-46_63e6891e9dfa02023-02-10_15-12-36_0_green_cometa30f-01fr.jpeg","","",""
"https://www.anecdata.org/posts/view/205488","205488","478083","lourteg","Creative Commons Attribution 4.0 International License","https://creativecommons.org/licenses/by/4.0/",-23.671375,-46.548527,"false","","","2023-01-27 02:16:06+0000","Brazil","Região Metropolitana de São Paulo","São Paulo","Santo André","`09050000","M42 The Orion Nebula
4"" f/4 EQ DRV ×16
Bortle 9-8
108Mp camera
f/1.9 ISO 3200 6sec
204 stacked pics - Siril
GIMP, Snapseed post-processed","4.0","25.0","M42","1.9","6.0","3200","","motorola / motorola edge 20 pro","/img/uploads/posts/_apu_2023-01-30-15-09-59_63d7ddc7db1252023-01-30_12-08-33_0_new_m42_70ab-04fr.jpeg","","",""
"https://www.anecdata.org/posts/view/205467","205467","477874","lourteg","Creative Commons Attribution 4.0 International License","https://creativecommons.org/licenses/by/4.0/",-23.671367,-46.548529,"false","","","2023-01-26 02:40:12+0000","Brazil","Região Metropolitana de São Paulo","São Paulo","Santo André","`09050000","M1
80mm f/11 EQ DRV ×36
Bortle 9-8
108Mp camera
f/1.9 ISO 3200 6sec
210 stacked pics - Siril
GIMP, Snapseed post-processed","3.1","25","M1","1.9","6.0","3200","","motorola / motorola edge 20 pro","/img/uploads/posts/_apu_2023-01-26-23-56-01_63d313110cc8f2023-01-26_20-55-52_0_new_m1_10ab-02fr.jpeg","","",""
"https://www.anecdata.org/posts/view/205404","205404","477527","lourteg","Creative Commons Attribution 4.0 International License","https://creativecommons.org/licenses/by/4.0/",-23.671339,-46.548519,"false","","","2023-01-18 02:33:14+0000","Brazil","Região Metropolitana de São Paulo","São Paulo","Santo André","`09050000","Christmas Tree Cluster (NGC 2264)
4"" f/4 EQ DRV ×23.5
Bortle 9-8
108Mp camera
f/1.9 ISO 3200 8sec
323 stacked pics - Siril
GIMP, Snapseed post-processed","4.0","17.0","NGC 2264","1.9","8.0","3200","","motorola / motorola edge 20 pro","/img/uploads/posts/_apu_2023-01-23-21-22-16_63cefa88ab4202023-01-23_18-20-20_0_new_cone50-01fr.jpeg","","",""
"https://www.anecdata.org/posts/view/204973","204973","475169","lourteg","Creative Commons Attribution 4.0 International License","https://creativecommons.org/licenses/by/4.0/",-23.671366,-46.548557,"false","","","2022-12-31 04:00:24+0000","Brazil","Região Metropolitana de São Paulo","São Paulo","Santo André","`09050000","The Flame Nebula (NGC 2024)
The Horsehead Nebula (IC 434)
NGC 2023 reflection nebula
4"" f/4 EQ DRV ×16
Bortle 9-8
108Mp camera
f/1.9 ISO 3200 8sec
381 stacked pics  - Siril
GIMP, Snapseed post-processed","4.0","25.0","NGC2024, NGC2023, IC434","1.9","8.0","3200","","motorola / motorola edge 20 pro","/img/uploads/posts/_apu_2023-01-03-23-57-25_63b4c0e5194662023-01-03_20-57-17_0_h_horse_p-04a-01fr.jpeg","","",""
"https://www.anecdata.org/posts/view/204940","204940","474950","lourteg","Creative Commons Attribution 4.0 International License","https://creativecommons.org/licenses/by/4.0/",-23.671345,-46.548482,"false","","","2022-12-17 03:28:39+0000","Brazil","Região Metropolitana de São Paulo","São Paulo","Santo André","`09050000","Mars
80mm f/11 EQ DRV ×150
Bortle 9-8
108Mp camera
f/1.9 ISO 800 1/90sec
124 stacked pics - Siril
GIMP, Snapseed post-processed","3.1","6.0","Mars","1.9","`0.11","800","","motorola / motorola edge 20 pro","/img/uploads/posts/_apu_2022-12-31-02-08-33_63af99a19046f2022-12-30_23-07-30_0_mars800f1fr.jpg","","",""
"https://www.anecdata.org/posts/view/204921","204921","474859","lourteg","Creative Commons Attribution 4.0 International License","https://creativecommons.org/licenses/by/4.0/",-23.671341,-46.548542,"false","","","2022-12-17 00:39:25+0000","Brazil","Região Metropolitana de São Paulo","São Paulo","Santo André","`09050000","All four Galilean moons orbiting Jupiter. From left to right: Callisto, Ganymede, Europa and Io.
80mm f/11 EQ DRV ×150
Bortle 9-8
108Mp camera
f/1.9 ISO 800 1/125sec
132 stacked pics - Siril
GIMP, Snapseed post-processed","3.1","6.0","Jupiter and 4 moons","1.9","`0.008","800","","motorola / motorola edge 20 pro","/img/uploads/posts/_apu_2022-12-29-16-14-24_63adbce0b8fc22022-12-29_13-10-04_0_jupnew_b1f_fr-01.jpeg","","",""
"https://www.anecdata.org/posts/view/204465","204465","473248","mauro","Creative Commons Attribution 4.0 International License","https://creativecommons.org/licenses/by/4.0/",43.786888,7.618074,"false","","","2022-12-07 21:00:00+0000","Italy","Imperia","Liguria","Ventimiglia",null,"Mars (in Taurus) and Sun opposition December 2022.
36 light frames + 4 dark frames stacked with Sequator and post-processed in Darktable","`0.0","5.59","Sun-Earth-Mars alignment","1.8","6''","400","","Realme 9 pro plus","/img/uploads/posts/59663-6391d0b5d82ad-1.jpg","","",""
"https://www.anecdata.org/posts/view/204447","204447","473195","mauro","Creative Commons Attribution 4.0 International License","https://creativecommons.org/licenses/by/4.0/",43.782513,7.552028,"false","","","2022-12-05 21:00:00+0000","Italy","Imperia","Liguria","Ventimiglia",null,"Conjunction between Jupiter and the Moon on the 5th December 2022 from the border between Italy and France (lights of Ville de Menton - France)
My very first attempt in smartphone astrophotography","`0.0","5.59 mm","Conjunction between Jupiter and the Moon","1.8","5''","400","","Realme 9 pro plus","/img/uploads/posts/59648-6390ca2504bf7-1.jpg","/img/uploads/posts/59649-6390ca2671751-1.jpg","",""
"https://www.anecdata.org/posts/view/204157","204157","472219","lourteg","Creative Commons Attribution 4.0 International License","https://creativecommons.org/licenses/by/4.0/",-23.671341,-46.548489,"false","","","2022-11-17 04:48:55+0000","Brazil","Região Metropolitana de São Paulo","São Paulo","Santo André","`09050000","NGC 2024 The Flame Nebula
4"" f/4 AZ ×16
Bortle 9-8
108Mp camera
f/1.9 ISO 3200 3sec
398 stacked pics - Siril
GIMP, Snapseed post-processed","4.0","25.0","NGC 2024","1.9","3.0","3200","","motorola / motorola edge 20 pro","/img/uploads/posts/_apu_2022-11-28-19-52-51_638511932aa162022-11-28_16-51-30_0_ngc2024_7ce-02fr.jpeg","","",""
"https://www.anecdata.org/posts/view/203879","203879","471167","lourteg","Creative Commons Attribution 4.0 International License","https://creativecommons.org/licenses/by/4.0/",-23.671396,-46.548475,"false","","","2022-11-17 04:22:20+0000","Brazil","Região Metropolitana de São Paulo","São Paulo","Santo André","`09050000","M45
4"" f/4 AZ ×16
Bortle 9-8
108Mp camera
f/1.9 ISO 3200 3sec
400 stacked pics - Siril
GIMP, Snapseed post-processed","4.0","25.0","M45","1.9","3.0","3200","","motorola / motorola edge 20 pro","/img/uploads/posts/_apu_2022-11-19-00-43-31_637826b3257e52022-11-18_21-43-19_0_m45_11e-01fr.jpeg","","",""
"https://www.anecdata.org/posts/view/202896","202896","467075","lourteg","Creative Commons Attribution 4.0 International License","https://creativecommons.org/licenses/by/4.0/",-20.255343,-46.362541,"false","","","2022-10-24 22:40:56+0000","Brazil",null,"Minas Gerais","São Roque de Minas","`37928-000","Jupiter
Bortle 4
108Mp camera
GCam 8.1 Astrophotography mode
Snapseed post-processed","`0.0","`0.0","Jupiter","1.9","?","?","","motorola / motorola edge 20 pro","/img/uploads/posts/_apu_2022-10-25-00-59-18_635734e6718232022-10-24_21-59-03_0_PXL_20221024_194025809-NIGHT-01.jpeg","","",""
"https://www.anecdata.org/posts/view/202820","202820","466422","lourteg","Creative Commons Attribution 4.0 International License","https://creativecommons.org/licenses/by/4.0/",-23.671349,-46.548549,"false","","","2022-10-20 02:42:29+0000","Brazil","Região Metropolitana de São Paulo","São Paulo","Santo André","`09050000","NGC 752
4"" f/4 AZ ×23.5
Bortle 9-8
108Mp camera Motorola Edge 20 Pro
f/1.9 ISO 3200 1sec
361 stacked pics - Siril
GIMP, Snapseed post-processed","4.0","17.0","NGC 752","1.9","1.0","3200","","motorola / motorola edge 20 pro","/img/uploads/posts/_apu_2022-10-22-20-32-55_63545377665632022-10-22_17-29-56_0_ngc752_3_l_fr.jpg","","",""
"https://www.anecdata.org/posts/view/200810","200810","460406","lourteg","Creative Commons Attribution 4.0 International License","https://creativecommons.org/licenses/by/4.0/",-23.671308,-46.548528,"false","","","2022-09-19 03:56:46+0000","Brazil","Região Metropolitana de São Paulo","São Paulo","Santo André","`09050000","M31
4"" f/4 AZ ×23.5
Bortle 9-8
108Mp camera
f/1.9 ISO 3200 2sec
391 stacked pics - Siril
GIMP, Snapseed post-processed","4.0","17.0","M31","1.9","2.0","3200","","motorola / motorola edge 20 pro","/img/uploads/posts/_apu_2022-09-20-01-02-19_6329111b49b702022-09-19_22-01-37_0_andro_bk_12-01-02-2fr.jpeg","","",""
"https://www.anecdata.org/posts/view/200043","200043","457417","lourteg","Creative Commons Attribution 4.0 International License","https://creativecommons.org/licenses/by/4.0/",-23.671341,-46.548573,"false","","","2022-09-01 02:52:54+0000","Brazil","Região Metropolitana de São Paulo","São Paulo","Santo André","`09050000","M2
4"" f/4 AZ ×23.5
Bortle 9-8
108Mp camera
f/1.9 ISO 3200 1sec
393 stacked pics - Siril
GIMP, Snapseed post-processed","4.0","17.0","M2","1.9","1.0","3200","","motorola / motorola edge 20 pro","/img/uploads/posts/_apu_2022-09-05-14-36-46_6316097e26fbb2022-09-05_11-36-38_0_m2_b_d-01fr.jpeg","","",""
"https://www.anecdata.org/posts/view/200039","200039","457388","lourteg","Creative Commons Attribution 4.0 International License","https://creativecommons.org/licenses/by/4.0/",-23.671293,-46.548532,"false","","","2022-09-01 02:22:35+0000","Brazil","Região Metropolitana de São Paulo","São Paulo","Santo André","`09050000","M15
4"" f/4 AZ ×23.5
Bortle 9-8
108Mp camera
f/1.9 ISO 3200 1sec
388 stacked pics - Siril
GIMP, Snapseed post-processed","4.0","17.0","M15","1.9","1.0","3200","","motorola / motorola edge 20 pro","/img/uploads/posts/_apu_2022-09-03-21-32-59_6313c80b2fcf72022-09-03_18-31-18_0_IMG_20220903_040553_809.jpg","","",""
"https://www.anecdata.org/posts/view/199161","199161","454131","lourteg","Creative Commons Attribution 4.0 International License","https://creativecommons.org/licenses/by/4.0/",-23.671295,-46.548525,"false","","","2022-08-03 01:56:14+0000","Brazil","Região Metropolitana de São Paulo","São Paulo","Santo André","`09050000","M57
4"" f/4 AZ ×23.5
Bortle 9-8
108Mp camera
f/1.9 ISO 3200 2sec
376 stacked pics - Siril
GIMP, Snapseed post-processed","4.0","17.0","M57","1.9","2.0","3200","","motorola / motorola edge 20 pro","/img/uploads/posts/_apu_2022-08-16-03-21-30_62fb0d3a471352022-08-16_00-17-59_0_m57_e_nd-01fr.jpeg","","",""
"https://www.anecdata.org/posts/view/198785","198785","452802","lourteg","Creative Commons Attribution 4.0 International License","https://creativecommons.org/licenses/by/4.0/",-23.671375,-46.548504,"false","","","2022-08-03 02:07:48+0000","Brazil","Região Metropolitana de São Paulo","São Paulo","Santo André","`09050000","M27
4"" f/4 AZ ×23.5
Bortle 9-8
108Mp camera
f/1.9 ISO 3200 2sec
347 stacked pics - Siril
GIMP, Snapseed post-processed","4.0","17.0","M27","1.9","2.0","3200","","motorola / motorola edge 20 pro","/img/uploads/posts/_apu_2022-08-10-14-26-05_62f3bffde41e82022-08-10_11-25-50_0_m27_h_a-02_fr.jpeg","","",""
"https://www.anecdata.org/posts/view/198465","198465","451469","lourteg","Creative Commons Attribution 4.0 International License","https://creativecommons.org/licenses/by/4.0/",-23.671391,-46.548518,"false","","","2022-08-04 02:22:04+0000","Brazil","Região Metropolitana de São Paulo","São Paulo","Santo André","`09050000","M7
4"" f/4 AZ ×23.5
Bortle 9-8
108Mp camera
f/1.9 ISO 3200 1sec
346 stacked pics - Siril
GIMP, Snapseed post-processed","4.0","17.0","M72","1.9","1.0","3200","","motorola / motorola edge 20 pro","/img/uploads/posts/_apu_2022-08-03-13-17-29_62ea7569889762022-08-03_10-16-36_0_IMG_20220803_051528_469.jpg","","",""
"https://www.anecdata.org/posts/view/194436","194436","436782","lourteg","Creative Commons Attribution 4.0 International License","https://creativecommons.org/licenses/by/4.0/",-10.592492,-46.755112,"false","","","2022-06-01 02:56:00+0000","Brazil",null,"Tocantins","Mateiros","`77593-000","Stretch of the Milky Way with the constellation of Crux near the skyline.
Bortle 1
108Mp camera
GCam 8.1 Astrophotography mode
Snapseed post-processed","0","0","Milky Way","1.9","`0.0","14,776","","motorola edge 20 pro","/img/uploads/posts/51044-629ab53076b1c-1.jpg","","",""
"https://www.anecdata.org/posts/view/185791","185791","426640","lourteg","Creative Commons Attribution 4.0 International License","https://creativecommons.org/licenses/by/4.0/",-23.67136,-46.54857,"false","","","2022-04-27 04:22:00+0000","Brazil","Região Metropolitana de São Paulo","São Paulo","Santo André","`09050000","M5
4"" f/4 AZ ×23.5
Bortle 9-8
108Mp camera
f/1.9 ISO 3200 1sec
201 stacked pics - Siril
GIMP, Snapseed post-processed","4.0","17.0","M5","1.9","1.0","3200","","motorola edge 20 pro","/img/uploads/posts/50482-628a644918be8-1.jpg","","",""
"https://www.anecdata.org/posts/view/185500","185500","425858","lourteg","Creative Commons Attribution 4.0 International License","https://creativecommons.org/licenses/by/4.0/",-23.67132,-46.54854,"false","","","2022-05-16 02:59:00+0000","Brazil","Região Metropolitana de São Paulo","São Paulo","Santo André","`09050000","Total Lunar Eclipse.
Bortle 9-8
8Mp camera x5 opt
f/3.4 ISO 200 1/125sec
GIMP post-processed","`0.0","`0.0","total lunar eclipse","3.4",".008","200","","motorola edge 20 pro","/img/uploads/posts/50179-628433a97e31b-1.jpg","","",""
"https://www.anecdata.org/posts/view/185232","185232","424998","phil_1","Creative Commons Attribution 4.0 International License","https://creativecommons.org/licenses/by/4.0/",34.600218,-112.293965,"false","","","2022-05-12 22:53:09+0000",null,"Yavapai","Arizona",null,"","","5""","19mm","Waxing Crescent Moon","2.2","1","200","","","/img/uploads/posts/49932-627d9066a147e-1.jpg","","",""
"https://www.anecdata.org/posts/view/185046","185046","424143","lourteg","Creative Commons Attribution 4.0 International License","https://creativecommons.org/licenses/by/4.0/",-23.67132,-46.54847,"false","","","2022-04-28 02:49:00+0000","Brazil","Região Metropolitana de São Paulo","São Paulo","Santo André","`09050000","M100
4"" f/4 AZ ×23.5
Bortle 9-8
108 Mp camera
f/1.9 ISO 3200 2sec
403 stacked pics - Siril
GIMP, Snapseed post-processed","4.0","17.0","M100","1.9","2.0","3200","","Motorola Edge 20 Pro","/img/uploads/posts/49788-6275c50f6abc8-1.jpg","","",""
"https://www.anecdata.org/posts/view/184995","184995","423960","lourteg","Creative Commons Attribution 4.0 International License","https://creativecommons.org/licenses/by/4.0/",-23.671278,-46.548477,"false","","","2022-04-27 02:31:42+0000","Brazil","Região Metropolitana de São Paulo","São Paulo","Santo André","`09050000","M64
4"" f/4 AZ ×23.5
Bortle 9-8
108Mp camera
f/1.9 ISO 3200 2sec
277 stacked pics - Siril
GIMP, Snapseed post-processed","4.0","17.0","M64","1.9","2.0","3200","","motorola / motorola edge 20 pro","/img/uploads/posts/_apu_2022-05-05-01-52-22_62732dd6e35fa2022-05-04_22-51-44_0_m64_9bfr.jpg","","",""
"https://www.anecdata.org/posts/view/184834","184834","422798","lourteg","Creative Commons Attribution 4.0 International License","https://creativecommons.org/licenses/by/4.0/",-23.671348,-46.548558,"false","","","2022-04-24 03:19:08+0000","Brazil","Região Metropolitana de São Paulo","São Paulo","Santo André","`09050000","M3
4"" f/4 AZ ×23.5
Bortle 9-8
108Mp camera
f/1.9 ISO 3200 1sec
192 stacked pics - Siril
GIMP post-processed","4.0","17.0","M3","1.9","1.0","3200","","motorola / motorola edge 20 pro","/img/uploads/posts/_apu_2022-04-30-14-41-11_626d4a875b7972022-04-30_11-40-20_0_m3_13afr.jpg","","",""
"https://www.anecdata.org/posts/view/184740","184740","422363","lourteg","Creative Commons Attribution 4.0 International License","https://creativecommons.org/licenses/by/4.0/",-23.671345,-46.548555,"false","","","2022-01-23 02:39:30+0000","Brazil","Região Metropolitana de São Paulo","São Paulo","Santo André","`09050000","NGC 2244
4"" f/4 AZ ×23.5
Bortle 9-8
108Mp camera
f/1.9 ISO 3200 2sec
335 stacked pics - Siril
GIMP post-processed","4.0","17.0","NGC 2244","1.9","2.0","3200","","motorola / motorola edge 20 pro","/img/uploads/posts/_apu_2022-04-26-02-42-54_62675c2eb5f6a2022-04-25_23-42-41_0_roseta10_10_fr.jpg","","",""
"https://www.anecdata.org/posts/view/183972","183972","419685","lourteg","Creative Commons Attribution 4.0 International License","https://creativecommons.org/licenses/by/4.0/",-23.671341,-46.548409,"false","","","2022-03-24 03:08:39+0000","Brazil","Região Metropolitana de São Paulo","São Paulo","Santo André","`09050000","M96
4"" f/4 AZ ×23.5
Bortle 9-8
108Mp camera
f/1.9 ISO 3200 2sec
325 stacked pics - Siril
GIMP post-processed","4.0","17.0","M96","1.9","2.0","3200","","motorola / motorola edge 20 pro","/img/uploads/posts/_apu_2022-05-01-01-03-28_626ddc6019e5d2022-04-30_22-03-19_0_m96_7_c_fr.jpg","","",""
"https://www.anecdata.org/posts/view/182711","182711","413534","lourteg","Creative Commons Attribution 4.0 International License","https://creativecommons.org/licenses/by/4.0/",-23.671314,-46.548603,"false","","","2022-03-06 05:18:11+0000","Brazil","Região Metropolitana de São Paulo","São Paulo","Santo André","`09050000","M53
4"" f/4 AZ ×23.5
Bortle 9-8
108Mp camera
f/1.9 ISO 3200 1sec
320 stacked pics - Siril
GIMP, Snapseed post-processed","4.0","17.0","M53","1.9","1.0","3200","","motorola / motorola edge 20 pro","/img/uploads/posts/_apu_2022-10-20-15-13-54_635165b2df5e92022-10-20_12-13-43_0_me53_02_l_fr.jpg","","",""
"https://www.anecdata.org/posts/view/182597","182597","412888","lourteg","Creative Commons Attribution 4.0 International License","https://creativecommons.org/licenses/by/4.0/",-23.67136,-46.548569,"false","","","2022-02-22 04:19:10+0000","Brazil","Região Metropolitana de São Paulo","São Paulo","Santo André","`09050000","NGC 2903
4"" f/4 AZ ×23.5
Bortle 9-8
108Mp camera
f/1.9 ISO 3200 2sec
370 stacked pics - Siril
GIMP, Snapseed post-processed","4.0","17.0","NGC 2903","1.9","2.0","3200","","motorola / motorola edge 20 pro","/img/uploads/posts/_apu_2022-10-20-15-15-31_6351661363af82022-10-20_12-15-23_0_ngc2903_32d-01fr.jpeg","","",""
"https://www.anecdata.org/posts/view/182596","182596","412887","lourteg","Creative Commons Attribution 4.0 International License","https://creativecommons.org/licenses/by/4.0/",-23.67136,-46.54857,"false","","","2022-02-21 01:54:35+0000","Brazil","Região Metropolitana de São Paulo","São Paulo","Santo André","`09050000","NGC 2129
4"" f/4 AZ ×23.5
Bortle 9-8
108Mp camera
f/1.9 ISO 3200 1sec
278 stacked pics - Siril
GIMP, Snapseed post-processed","4.0","17.0","NGC 2129","1.9","1.0","3200","","motorola / motorola edge 20 pro","/img/uploads/posts/_apu_2022-04-15-23-05-38_6259fa42ce5c02022-04-15_20-05-34_0_ngc2129_11_fr.jpg","","",""
"https://www.anecdata.org/posts/view/182566","182566","412789","lourteg","Creative Commons Attribution 4.0 International License","https://creativecommons.org/licenses/by/4.0/",-23.671355,-46.548571,"false","","","2022-02-22 02:37:46+0000","Brazil","Região Metropolitana de São Paulo","São Paulo","Santo André","`09050000","M46
4"" f/4 AZ ×23.5
Bortle 9-8
108Mp camera
f/1.9 ISO 3200 1sec
271 stacked pics - Siril
GIMP post-processed","4.0","17./","M46","1.9","2.0","3200","","motorola / motorola edge 20 pro","/img/uploads/posts/_apu_2022-03-02-17-35-19_621faad79bb482022-03-02_14-34-11_0_m46_2a_fr-01.jpeg","","",""
"https://www.anecdata.org/posts/view/182491","182491","412424","lourteg","Creative Commons Attribution 4.0 International License","https://creativecommons.org/licenses/by/4.0/",-23.671343,-46.548599,"false","","","2022-02-23 02:32:53+0000","Brazil","Região Metropolitana de São Paulo","São Paulo","Santo André","`09050000","M50
4"" f/4 AZ ×23.5
Bortle 9-8
108Mp camera
f/1.9 ISO 3200 1sec
257 stacked pics - Siril
GIMP post-processed","4.0","17.0","M50","1.9","1.0","3200","","motorola / motorola edge 20 pro","/img/uploads/posts/_apu_2022-02-27-19-51-54_621bd65a4aa152022-02-27_16-51-42_0_heart_2a_fr1.jpg","","",""
"https://www.anecdata.org/posts/view/182383","182383","411935","lourteg","Creative Commons Attribution 4.0 International License","https://creativecommons.org/licenses/by/4.0/",-23.671323,-46.548572,"false","","","2022-02-21 03:21:13+0000","Brazil","Região Metropolitana de São Paulo","São Paulo","Santo André","`09050000","M47
4"" f/4 AZ ×23.5
Bortle 9-8
108Mp camera
f/1.9 ISO 3200 1sec
186 stacked pics - Siril
GIMP post-processed","4.0","17.0","M47","1.9","1.0","3200","","motorola / motorola edge 20 pro","/img/uploads/posts/_apu_2022-02-22-20-16-08_62154488391802022-02-22_17-15-59_0_m47_24a_fr.jpg","","",""
"https://www.anecdata.org/posts/view/182268","182268","411301","lourteg","Creative Commons Attribution 4.0 International License","https://creativecommons.org/licenses/by/4.0/",-23.671301,-46.548447,"false","","","2022-02-10 03:15:52+0000","Brazil","Região Metropolitana de São Paulo","São Paulo","Santo André","`09050000","Flame Nebula NGC 2024
4"" f/4 AZ ×23.5
Bortle 9-8
108Mp camera
f/1.9 ISO 3200 2sec
294 stacked pics - Siril
GIMP post-processed","4.0","17.0","NGC 2024 Flame Nebula","1.9","2.0","3200","","motorola / motorola edge 20 pro","/img/uploads/posts/_apu_2022-02-18-19-12-26_620fef9a9adb82022-02-18_16-10-58_0_new_flame_40a.jpeg","","",""
"https://www.anecdata.org/posts/view/181975","181975","409879","lourteg","Creative Commons Attribution 4.0 International License","https://creativecommons.org/licenses/by/4.0/",-23.671317,-46.548458,"false","","","2022-02-10 06:18:14+0000","Brazil","Região Metropolitana de São Paulo","São Paulo","Santo André","`09050000","The Leo Triplet
4"" f/4 AZ ×23.5
Bortle 9-8
108Mp camera
f/1.9 ISO 3200 2sec
238 stacked pics - Siril
GIMP post-processed","4.0","17.0","The Leo Triplet","1.9","2.0","3200","","motorola / motorola edge 20 pro","/img/uploads/posts/_apu_2022-02-15-02-49-19_620b14af620c52022-02-14_23-48-23_0_triplet_20_f1.jpg","","",""
"https://www.anecdata.org/posts/view/181543","181543","407254","lourteg","Creative Commons Attribution 4.0 International License","https://creativecommons.org/licenses/by/4.0/",-23.671291,-46.548588,"false","","","2022-01-25 05:08:31+0000","Brazil","Região Metropolitana de São Paulo","São Paulo","Santo André","`09050000","M48
4"" f/4 AZ ×23.5
Bortle 9-8
108Mp camera
f/1.9 ISO 3200 1sec
374 stacked pics - Siril
GIMP post-processed","4.0","17.0","M48","1.9","1.0","3200","","motorola / motorola edge 20 pro","/img/uploads/posts/_apu_2022-01-30-16-47-06_61f6c10a83d442022-01-30_13-46-59_0_belt_33_m48.jpg","","",""
"https://www.anecdata.org/posts/view/181525","181525","407177","lourteg","Creative Commons Attribution 4.0 International License","https://creativecommons.org/licenses/by/4.0/",-23.671326,-46.548512,"false","","","2022-01-22 16:19:30+0000","Brazil","Região Metropolitana de São Paulo","São Paulo","Santo André","`09050000","M44
4"" f/4 AZ ×23.5
Bortle 9-8
108Mp camera
f/1.9 ISO 3200 1sec
289 stacked pics - Siril
GIMP post-processed","4.0","17.0","M44","1.9","1.0","3200","","motorola / motorola edge 20 pro","/img/uploads/posts/_apu_2022-01-30-18-51-05_61f6de1909b982022-01-30_15-50-55_0_beehive55.jpg","","",""
"https://www.anecdata.org/posts/view/181479","181479","406964","lourteg","Creative Commons Attribution 4.0 International License","https://creativecommons.org/licenses/by/4.0/",-23.671319,-46.548582,"false","","","2022-01-25 03:11:04+0000","Brazil","Região Metropolitana de São Paulo","São Paulo","Santo André","`09050000","NGC 2301
4"" f/4 AZ ×23.5
Bortle 9-8
108Mp camera
f/1.9 ISO 3200 1sec
492 stacked pics - Siril
GIMP post-processed","4.0","17.0","NGC 2301","1.9","1.0","3200","","motorola / motorola edge 20 pro","/img/uploads/posts/_apu_2022-01-26-02-02-12_61f0aba4784be2022-01-25_23-02-02_0_Great_Bird2.jpg","","",""
"https://www.anecdata.org/posts/view/181241","181241","406586","lourteg","Creative Commons Attribution 4.0 International License","https://creativecommons.org/licenses/by/4.0/",-23.671341,-46.548504,"false","","","2022-01-23 03:55:59+0000","Brazil","Região Metropolitana de São Paulo","São Paulo","Santo André","`09050000","M67
4"" f/4 AZ ×23.5
Bortle 9-8
108Mp camera
f/1.9 ISO 3200 1sec
293 stacked pics - Siril
GIMP post-processed","4.0","17.0","M67","1.9","1.0","3200","","motorola / motorola edge 20 pro","/img/uploads/posts/_apu_2022-01-30-03-39-39_61f6087bc1ff32022-01-30_00-39-34_0_king_cobra7.jpg","","",""
"https://www.anecdata.org/posts/view/181074","181074","406177","lourteg","Creative Commons Attribution 4.0 International License","https://creativecommons.org/licenses/by/4.0/",-23.671322,-46.548536,"false","","","2022-01-18 03:57:26+0000","Brazil","Região Metropolitana de São Paulo","São Paulo","Santo André","`09050000","NGC 2264
4"" f/4 AZ ×23.5
Bortle 9-8
108Mp camera
f/1.9 ISO 3200 1sec
322 stacked pics - Siril
GIMP post-processed","4.0","17.0","NGC 2264","1.9","1.0","3200","","motorola / motorola edge 20 pro","/img/uploads/posts/_apu_2022-01-20-13-58-18_61e96a7ae76332022-01-20_10-58-08_0_Chr_tree_5_1.jpg","","",""
"https://www.anecdata.org/posts/view/180747","180747","404584","zo_","Creative Commons Attribution 4.0 International License","https://creativecommons.org/licenses/by/4.0/",51.826988,-2.2715,"false","","","2022-01-06 18:27:15+0000","United Kingdom","Gloucestershire","England","Gloucester",null,"","360 50","H20","Moon","2.4","I dont know","I dont know","","Apple / iPad 3","/img/uploads/posts/_apu_2022-01-08-13-22-01_61d98ff9c76ec2022-01-08_13-21-29_0_cdv_photo_002.jpg","/img/uploads/posts/_apu_2022-01-08-21-17-16_61d9ff5c98ca62022-01-08_21-16-52_0_cdv_photo_004.jpg","",""
"https://www.anecdata.org/posts/view/180553","180553","403501","lourteg","Creative Commons Attribution 4.0 International License","https://creativecommons.org/licenses/by/4.0/",-23.671347,-46.548607,"false","","","2021-12-26 01:54:12+0000","Brazil","Região Metropolitana de São Paulo","São Paulo","Santo André","`09050000","M1
4"" f/4 AZ ×23.5
Bortle 9-8
108Mp camera
f/1.9 ISO 3200 2sec
150 stacked pics - Siril
GIMP, Snapseed post-processed","4.0","17.0","M1","1.9","2.0","3200","","motorola / motorola edge 20 pro","/img/uploads/posts/_apu_2022-05-01-00-57-11_626ddae77413d2022-04-30_21-57-03_0_crab_5_1C.jpg","","",""
"https://www.anecdata.org/posts/view/180484","180484","403158","lourteg","Creative Commons Attribution 4.0 International License","https://creativecommons.org/licenses/by/4.0/",-23.671345,-46.548472,"false","","","2021-12-13 02:26:30+0000","Brazil","Região Metropolitana de São Paulo","São Paulo","Santo André","`09050000","M35
4"" f/4 AZ ×23.5
Bortle 9-8
108Mp camera
f/1.9 ISO 3200 1sec
61 stacked pics - Siril
GIMP post-processed","4.0","17.0","M35","1.9","1.0","3200","","motorola / motorola edge 20 pro","/img/uploads/posts/_apu_2021-12-20-22-51-48_61c10904ec2f62021-12-20_19-51-28_0_M35_2_1.jpg","","",""
"https://www.anecdata.org/posts/view/180404","180404","402927","lourteg","Creative Commons Attribution 4.0 International License","https://creativecommons.org/licenses/by/4.0/",-23.671341,-46.548525,"false","","","2021-12-11 04:05:10+0000","Brazil","Região Metropolitana de São Paulo","São Paulo","Santo André","`09050000","M38
4"" f/4 AZ ×23.5
Bortle 9-8
108Mp camera
f/1.9 ISO 3200 1sec
82 stacked pics - Siril
GIMP post-processed","4.0","17.0","M38","1.9","1.0","3200","","motorola / motorola edge 20 pro","/img/uploads/posts/_apu_2021-12-17-17-07-33_61bcc3d50798f2021-12-17_14-06-50_0_Starfish4-2.jpg","","",""
"https://www.anecdata.org/posts/view/180332","180332","402721","lourteg","Creative Commons Attribution 4.0 International License","https://creativecommons.org/licenses/by/4.0/",-23.671343,-46.548527,"false","","","2021-12-11 03:47:15+0000","Brazil","Região Metropolitana de São Paulo","São Paulo","Santo André","`09050000","M37
4"" f/4 AZ ×23.5
Bortle 9-8
108Mp camera
f/1.9 ISO 3200 1sec
61 stacked pics - Siril
GIMP, Snapseed post-processed","4.0","17.0","M37","1.9","1.0","3200","","motorola / motorola edge 20 pro","/img/uploads/posts/_apu_2021-12-14-16-04-23_61b8c08718a2f2021-12-14_13-04-14_0_Salt_Peppa2.jpg","","",""
"https://www.anecdata.org/posts/view/180281","180281","402449","lourteg","Creative Commons Attribution 4.0 International License","https://creativecommons.org/licenses/by/4.0/",-23.671364,-46.548476,"false","","","2021-12-11 04:36:34+0000","Brazil","Região Metropolitana de São Paulo","São Paulo","Santo André","`09050000","M42
4"" f/4 AZ ×23.5
Bortle 9-8
108Mp camera
f/1.9 ISO 3200 2sec 
144 stacked pics - Siril
GIMP, Snapseed post-processed","4.0","17.0","M42","1.9","2.0","3200","","motorola / motorola edge 20 pro","/img/uploads/posts/_apu_2021-12-12-19-02-50_61b6475ab3a832021-12-12_16-02-23_0_Orion4.jpg","","",""
"https://www.anecdata.org/posts/view/179841","179841","401307","lourteg","Creative Commons Attribution 4.0 International License","https://creativecommons.org/licenses/by/4.0/",-23.671362,-46.548534,"false","","","2021-11-28 05:42:47+0000","Brazil","Região Metropolitana de São Paulo","São Paulo","Santo André","`09050000","M36
4"" f/4 AZ ×23.5
Bortle 9-8
108Mp camera
f/1.9 ISO 3200 1sec
66 stacked pics - Siril
GIMP post-processed","4.0","17.0","M36","1.9","1.0","3200","","motorola / motorola edge 20 pro","/img/uploads/posts/_apu_2021-12-20-17-49-33_61c0c22d345ee2021-12-20_14-49-23_0_Pinwhell4.jpg","","",""
"https://www.anecdata.org/posts/view/179802","179802","401208","lourteg","Creative Commons Attribution 4.0 International License","https://creativecommons.org/licenses/by/4.0/",-23.671307,-46.548519,"false","","","2021-11-28 03:49:40+0000","Brazil","Região Metropolitana de São Paulo","São Paulo","Santo André","`09050000","Constellation of Taurus
Bortle 9-8
8Mp camera
x5 optical zoom
f/3.4 ISO 200 8sec
1 pic + bias, flats, darks - Siril
GIMP, Snapseed post-processed","0","0","Constellation of Taurus","3.4","8.0","200","","motorola / motorola edge 20 pro","/img/uploads/posts/_apu_2021-11-29-11-46-05_61a4bd7d460122021-11-29_08-45-12_0_IMG_20211129_083259_169.jpg","","",""
"https://www.anecdata.org/posts/view/179699","179699","400709","lourteg","Creative Commons Attribution 4.0 International License","https://creativecommons.org/licenses/by/4.0/",-23.671362,-46.548489,"false","","","2021-11-08 03:26:34+0000","Brazil","Região Metropolitana de São Paulo","São Paulo","Santo André","`09050000","M45
4"" f/4 AZ ×23.5
Bortle 9-8
108Mp camera
f/1.9 ISO 3200 1sec
46 stacked pics - Siril
GIMP post-processed","4.0","17.0","M45","1.9","1.0","3200","","motorola / motorola edge 20 pro","/img/uploads/posts/_apu_2021-12-01-14-02-47_61a780874c7a42021-12-01_11-02-33_0_New_Pleiades2.jpg","","",""
"https://www.anecdata.org/posts/view/179672","179672","400539","elizabeth_warner","Creative Commons Attribution 4.0 International License","https://creativecommons.org/licenses/by/4.0/",38.990942,-76.942086,"false","","","2021-11-19 09:35:20+0000","United States","Prince George's","Maryland","College Park","`20742","","6","50","Eclipsed Moon","1.5","`0.1","320","","samsung / SM-G965U","/img/uploads/posts/_apu_2021-11-22-19-40-59_619bf24ba124a2021-11-22_14-40-44_0_20211119_043547.jpg","","",""
"https://www.anecdata.org/posts/view/179350","179350","399400","lourteg","Creative Commons Attribution 4.0 International License","https://creativecommons.org/licenses/by/4.0/",-23.671356,-46.548576,"false","","","2021-11-16 02:24:42+0000","Brazil","Região Metropolitana de São Paulo","São Paulo","Santo André","`09050000","4"" f/4 AZ ×66.7 x2
ND0.6 filter
Bortle 9-8
8Mp camera
x5 optical zoom
f/3.4 ISO 1050 1/30sec
Snapseed post-processed","4.0","3.0","Clavius crater","3.4","`0.033","1050","","motorola / motorola edge 20 pro","/img/uploads/posts/_apu_2021-11-16-22-17-46_61942e0a3792f2021-11-16_19-16-09_0_Clavius1.jpeg","","",""
"https://www.anecdata.org/posts/view/179349","179349","399399","lourteg","Creative Commons Attribution 4.0 International License","https://creativecommons.org/licenses/by/4.0/",-23.671352,-46.548576,"false","","","2021-11-15 01:49:40+0000","Brazil","Região Metropolitana de São Paulo","São Paulo","Santo André","`09050000","4"" f/4 AZ ×66.7
ND0.6 filter
Bortle 9-8
108Mp camera
f/1.9 ISO 200 1/10sec
Snapseed post-processed","4.0","6.0","Moon","1.9","`0.1","200","","motorola / motorola edge 20 pro","/img/uploads/posts/_apu_2021-11-16-22-13-32_61942d0c43d322021-11-16_19-12-57_0_Tycho1.jpeg","","",""
"https://www.anecdata.org/posts/view/179246","179246","399083","YYCC","Creative Commons Attribution 4.0 International License","https://creativecommons.org/licenses/by/4.0/",38.822591,-80.859375,"false","","","2021-11-14 20:55:30+0000","United States","Gilmer","West Virginia",null,null,"","Test Data","Test Data","Test Data","Test Data","Test Data","Test Data","","Apple / iPhone12,1","/img/uploads/posts/_apu_2021-11-14-20-56-31_619177ff70e982021-11-14_15-56-07_0_cdv_photo_003.jpg","","",""
"https://www.anecdata.org/posts/view/176654","176654","392778","little_big_dipper","Creative Commons Attribution 4.0 International License","https://creativecommons.org/licenses/by/4.0/",35.053479,-78.756031,"false","","","2020-12-30 00:51:00+0000","United States","Cumberland","North Carolina",null,"`28312","","2.8","4.25","Moon","1.7","1/350","50","","Gskyer Telescope","/img/uploads/posts/43983-615bf6c8d6712-1.jpg","","",""
"https://www.anecdata.org/posts/view/175499","175499","389171","stellaman","Creative Commons Attribution 4.0 International License","https://creativecommons.org/licenses/by/4.0/",53.132481,-1.553879,"false","","","2021-09-06 20:09:06+0000","United Kingdom","Derbyshire","England","Derbyshire Dales","`DE4 3BZ","","1.8","8.5 Pentax XF","Solar prominences","Telephoto lens on iPhone","Default setting","N/A","","Coronado PST","/img/uploads/posts/42820-6141796c5318b-1.jpg","","",""
"https://www.anecdata.org/posts/view/163822","163822","371520","DreaScar","Creative Commons Attribution 4.0 International License","https://creativecommons.org/licenses/by/4.0/",34.168278,-118.373421,"false","","","2021-08-03 02:47:10+0000","United States","Los Angeles","California","Los Angeles","`91601","Smartphone mounted to eyepiece, processed/stacked with Lynkeos and Gimp","8","14mm (2x)","Jupiter","0","1/25","500","","Z8","/img/uploads/posts/41250-610b518b84b09-1.jpg","","",""
"https://www.anecdata.org/posts/view/163820","163820","371517","DreaScar","Creative Commons Attribution 4.0 International License","https://creativecommons.org/licenses/by/4.0/",34.168278,-118.373421,"false","","","2021-08-03 02:41:59+0000","United States","Los Angeles","California","Los Angeles","`91601","Taken with a iphone 7+ mounted to the eyepiece and processed with Lynkeos and Gimp.","8","14mm (w 2X Barlow)","Saturn","na","1/25","640","","Zhumell Z8","/img/uploads/posts/41249-610b5129cd941-1.jpg","","",""
"https://www.anecdata.org/posts/view/151554","151554","350144","stellaman","Creative Commons Attribution 4.0 International License","https://creativecommons.org/licenses/by/4.0/",53.141346,-1.546669,"false","","","2021-06-16 05:15:21+0000","United Kingdom","Derbyshire","England","Derbyshire Dales","`DE4 3GD","","4.75","9.7mm","Quarter new moon at 22.00 hours last night, 15th June","Normal, default setting","Normal shutter speed, default setting","Normal, default setting","","iPhone SE rear camera through telescope","/img/uploads/posts/39401-60c97e9058540-1.jpg","","",""
"https://www.anecdata.org/posts/view/150385","150385","347711","stellaman","Creative Commons Attribution 4.0 International License","https://creativecommons.org/licenses/by/4.0/",53.145431,-1.542892,"false","","","2021-06-04 12:18:00+0000","United Kingdom","Derbyshire","England","Derbyshire Dales","`DE4 3GD","Setting full moon behind hill, trees silhouetted, about two miles away, about 04.45 on the morning of 27th May 2021","4.75","20mm","Full moon without filter","N/A","normal shutter speed","N/A","","Using my 120mm f5.8 refractor with iPhone rear facing camera","/img/uploads/posts/38784-60ba1d6b4a015-1.jpg","","",""
"https://www.anecdata.org/posts/view/148245","148245","343804","DreaScar","Creative Commons Attribution 4.0 International License","https://creativecommons.org/licenses/by/4.0/",34.168278,-118.373421,"false","","","2020-12-22 06:22:41+0000","United States","Los Angeles","California","Los Angeles","`91601","Taken during the J&S Conjunction of 2020. Equipment: Z8, Celestron NexYZ mount, Explore Scientific 14mm 82 deg, iphone7+, Nightcap photo app.","8","14mm ES 82 Deg","Jupiter & Saturn Conjunction","N/A","Default","600","","Zhumell Z8","/img/uploads/posts/38497-60b07f517166c-1.jpg","","",""
"https://www.anecdata.org/posts/view/148244","148244","343803","DreaScar","Creative Commons Attribution 4.0 International License","https://creativecommons.org/licenses/by/4.0/",34.168278,-118.373421,"false","","","2021-05-18 03:44:44+0000","United States","Los Angeles","California","Los Angeles","`91601","Z8, NexYz smartphone mount, iPhone7+ and Nightcap photo app.","8""","30mm","Moon Waxing Crescent","N/A","Default","500","","Zhumell Z8","/img/uploads/posts/38495-60b06c98920eb-1.jpg","/img/uploads/posts/38495-60b06c9906ee1-1.jpg","",""
"https://www.anecdata.org/posts/view/148243","148243","343802","DreaScar","Creative Commons Attribution 4.0 International License","https://creativecommons.org/licenses/by/4.0/",34.168278,-118.373421,"false","","","2021-05-20 00:47:26+0000","United States","Los Angeles","California","Los Angeles","`91601","Taken using an Astrozap full aperture solar filter, iPhone7+ using a Celestron NexYz phone mount and NightCap app to dim the object and manipulate the exposure and iso settings. Note the sunspot in the 5 o'clock position and the partial eclipse (plane)^^.","8""","30mm","Sun","N/A","N/A","250","","Zhumell Z8","/img/uploads/posts/38494-60b068bfd5bc2-1.jpg","","",""
"https://www.anecdata.org/posts/view/148242","148242","343801","DreaScar","Creative Commons Attribution 4.0 International License","https://creativecommons.org/licenses/by/4.0/",34.168278,-118.373421,"false","","","2021-04-29 04:00:00+0000","United States","Los Angeles","California","Los Angeles","`91601","This photo was actually taken with an iPhone 7+ using a Celestron NexYz phone mount on Zhunell 8x42 binoculars held with  steady hands. NightCap app to dim the object and manipulate the exposure and iso settings.","N/A","N/A","Moon","N/A","N/A","600","","iPhone 7+","/img/uploads/posts/38493-60b0675148a6c-1.jpg","","",""
"https://www.anecdata.org/posts/view/147920","147920","342540","kuiperkat","Creative Commons Attribution 4.0 International License","https://creativecommons.org/licenses/by/4.0/",40.694834,-73.928407,"false","","","2021-05-22 01:37:32+0000","United States","Kings","New York","New York","`11221","Handheld shot.","Sky Watcher 120 MM Refeactor","25 mm plössl","Waxing gibbous Moon","1.8","1/120s","50","","Apple / iPhone XR","/img/uploads/posts/_apu_1621870447_60abc76f48c8d1621870425301.jpeg","","",""
"https://www.anecdata.org/posts/view/147879","147879","342455","jenniferfulford","Creative Commons Attribution 4.0 International License","https://creativecommons.org/licenses/by/4.0/",37.711196,-89.852911,"false","","","2021-05-24 01:24:18+0000","United States","Perry","Missouri","Perryville","`63775","","1","1","Moon","1.7",".5","1","","samsung / SM-G973U","/img/uploads/posts/_apu_1621819683_60ab0123be52c1621819485152.jpeg","","",""
"https://www.anecdata.org/posts/view/147171","147171","341100","stellaman","Creative Commons Attribution 4.0 International License","https://creativecommons.org/licenses/by/4.0/",53.128234,-1.551819,"false","","","2020-04-22 13:11:09+0000","United Kingdom","Derbyshire","England","Derbyshire Dales","`DE4 3AD","I experimented taking some photographs of the planet Venus as it moved through its different phases - after being surprised that my new 4.75 inch, f5.8 refractor from Meade could handle the intense light, and stray light beams, better than my 4 inch apochromatic refractor costing more than twice the money! I am guessing that they must have done a good job with designing the internal baffling at Meade. I took this photograph using a 12mm ED eyepiece and again using the telephoto facility on the rear camera of my iPhone SE. This was another of my photographs that I took looking through my window! I took this photo at 21.30 on the 22nd April, last year.","4.75","12mm","Venus","N/A","Normal shutter speed","N/A","","iPhone SE rear camera","/img/uploads/posts/38020-60a11e11381f6-1.jpg","","",""
"https://www.anecdata.org/posts/view/147152","147152","341081","stellaman","Creative Commons Attribution 4.0 International License","https://creativecommons.org/licenses/by/4.0/",53.134254,-1.553879,"false","","","2019-02-13 13:22:44+0000","United Kingdom","Derbyshire","England","Derbyshire Dales","`DE4 3BZ","I took this photograph quite sometime ago, on the 13th February, 2019, at 11.59pm, using my iPhone SE rear camera looking through a 4mm eyepiece on my 102mm f7 apochromatic refractor, also adjusting the telephoto lens on the iPhone camera.","4 inches","4mm","moon","N/A","normal shutter speed","N/A","","iPhone SE rear camera","/img/uploads/posts/38017-60a1130f891a8-1.jpg","","",""
"https://www.anecdata.org/posts/view/147139","147139","341068","stellaman","Creative Commons Attribution 4.0 International License","https://creativecommons.org/licenses/by/4.0/",53.136072,-1.565552,"false","","","2021-05-14 12:02:44+0000","United Kingdom","Derbyshire","England","Derbyshire Dales","`DE4 2PA","I have experimented with taking a number of photographs through my optical instruments, using both my iPhone and iPad. This photograph is certainly not the sharpest image I have taken, but as it is the most recent, and the crescent new moon is such lovely image, I thought that I would post it on the site","4.75","12mm","New Moon","N/A","Normal shutter speed","N/A","","iPad mini 4, rear facing camera","/img/uploads/posts/38014-60a0fe992a99a-1.jpg","","",""
"https://www.anecdata.org/posts/view/145037","145037","337027","kuiperkat","Creative Commons Attribution 4.0 International License","https://creativecommons.org/licenses/by/4.0/",40.743437,-73.884333,"false","","","2021-02-28 01:16:48+0000","United States","Queens","New York","New York","`11373","Handheld shot.","5 inches; SkyWatcher StarTravel","32mm","Moon","1.8","1/120 s","80","","Apple / iPhone XR","/img/uploads/posts/_apu_1619717252_608aec84ddc351619717223655.jpeg","","",""
"https://www.anecdata.org/posts/view/145036","145036","337026","kuiperkat","Creative Commons Attribution 4.0 International License","https://creativecommons.org/licenses/by/4.0/",40.743412,-73.884301,"false","","","2021-03-06 00:01:05+0000","United States","Queens","New York","New York","`11373","Handheld shot","5 inches; SkyWatcher StarTravel","25 mm","M42, Orion Nebula","1.8","1/4s","3200","","Apple / iPhone XR","/img/uploads/posts/_apu_1619716613_608aea050bf971619716598301.jpeg","","",""
"https://www.anecdata.org/posts/view/145035","145035","337025","kuiperkat","Creative Commons Attribution 4.0 International License","https://creativecommons.org/licenses/by/4.0/",40.743515,-73.884613,"false","","","2021-03-30 00:39:05+0000","United States","Queens","New York","New York","`11373","Handheld shot","3.5 inches; Celestron 90 SLT","25 mm","M44, Beehive Cluster","1.8","10s","2304","","Apple / iPhone XR","/img/uploads/posts/_apu_1619716332_608ae8ecdfd061619716325981.jpeg","","",""
"https://www.anecdata.org/posts/view/145034","145034","337024","kuiperkat","Creative Commons Attribution 4.0 International License","https://creativecommons.org/licenses/by/4.0/",40.743458,-73.884636,"false","","","2021-04-26 00:24:07+0000","United States","Queens","New York","New York","`11373","Mounted shot, using Celestron NexYZ","5 inch SkyWatcher StarTravel","17mm","Moon","1.8","1/446s","25","","Apple / iPhone XR","/img/uploads/posts/_apu_1619716075_608ae7eb752c11619716058915.jpeg","","",""
"https://www.anecdata.org/posts/view/141429","141429","330523","Moore","Creative Commons Attribution 4.0 International License","https://creativecommons.org/licenses/by/4.0/",35.170528,-83.649559,"false","","","2020-07-18 02:14:37+0000","United States","Macon","North Carolina",null,null,"Bortle 3 zone, altitude 3300 feet, slight editing in Adobe Photoshop Elements","no telescope used","4.03 mm","Comet Neowise","1.8","10","1200","","LG G6 phone native camera","","","",""
"https://www.anecdata.org/posts/view/134977","134977","320614","Stargazer","Creative Commons Attribution 4.0 International License","https://creativecommons.org/licenses/by/4.0/",40.950958,-72.92038,"false","","","2021-02-27 23:59:30+0000","United States","Suffolk","New York","Miller Place","`11778","","10","15","Orion Nebula","1.8","1/2","3200","","samsung / SM-G991U","/img/uploads/posts/_apu_1614475640_603af1781a8591614475631826.jpg","/img/uploads/posts/_apu_1614475640_603af178d1c861614475623739.jpg","/img/uploads/posts/_apu_1614475641_603af179c3fec1614475600636.jpg",""
"https://www.anecdata.org/posts/view/134976","134976","320613","Stargazer","Creative Commons Attribution 4.0 International License","https://creativecommons.org/licenses/by/4.0/",40.950949,-72.920382,"false","","","2021-02-27 23:56:56+0000","United States","Suffolk","New York","Miller Place","`11778","","10","15","Sirius","1.8","1/2","3200","","samsung / SM-G991U","/img/uploads/posts/_apu_1614475339_603af04bae4d81614475315203.jpg","","",""
"https://www.anecdata.org/posts/view/134146","134146","318934","GOKU13222","Creative Commons Attribution 4.0 International License","https://creativecommons.org/licenses/by/4.0/",-0.617454,-0.013046,"false","","","2021-02-13 10:48:52+0000","","","","","","","1","55","Moon","1.7","3 seconds","5676","","HMD Global / Nokia 7.1","/img/uploads/posts/_apu_1613213447_6027af078e5291613213370433.jpg","","",""
"https://www.anecdata.org/posts/view/133608","133608","315780","Stargazer","Creative Commons Attribution 4.0 International License","https://creativecommons.org/licenses/by/4.0/",40.950957,-72.92036,"false","","","2020-12-18 22:49:48+0000","United States","Suffolk","New York","Miller Place","`11778","","10","15","Moon","1.8","1/60","134","","Google / Pixel 3","/img/uploads/posts/_apu_1611607543_600f2df771a941611607536862.jpg","","",""
"https://www.anecdata.org/posts/view/133605","133605","315777","Stargazer","Creative Commons Attribution 4.0 International License","https://creativecommons.org/licenses/by/4.0/",40.95092,-72.92028,"false","","","2020-12-29 00:45:13+0000","United States","Suffolk","New York","Miller Place","`11778","","10","15","Moon","1.8","1/379","85","","Google / Pixel 3","/img/uploads/posts/_apu_1611603736_600f1f18608441611603708925.jpg","","",""
"https://www.anecdata.org/posts/view/133289","133289","314628","nachimak28","Creative Commons Attribution 4.0 International License","https://creativecommons.org/licenses/by/4.0/",19.208982,72.866577,"false","","","2021-01-15 18:27:38+0000","India",null,"Maharashtra","Mumbai",null,"The star was twinkling meaning atmosphere was not stable. Without automated tracker, 1 second is the max exposure I can get without seeing star trails","6","25","Canopus","1.79","1/14","25600","","Xiaomi / Redmi Note 7 Pro","/img/uploads/posts/_apu_1610742264_6001f9f8a27631610742129135.jpg","","",""
"https://www.anecdata.org/posts/view/131143","131143","309408","caiusdf","Creative Commons Attribution 4.0 International License","https://creativecommons.org/licenses/by/4.0/",47.156136,27.586969,"false","","","2020-01-03 22:45:23+0000","Romania","Iași",null,"Iași",null,"","9","10","Moon","1.7","1/8","100","","Maksutov 9""/F1250mm","/img/uploads/posts/33122-5fc02fadb9844.jpg","/img/uploads/posts/33123-5fc02fae4e0ec.jpg","/img/uploads/posts/33124-5fc02faf434f7.jpg",""
"https://www.anecdata.org/posts/view/126692","126692","302979","Starguy","Creative Commons Attribution 4.0 International License","https://creativecommons.org/licenses/by/4.0/",42.04058,-91.615933,"false","","","2020-11-03 21:12:00+0000","United States","Linn","Iowa","Marion","`52302","Image of the Sun and the large sunspot on the Sun's southeast limb. Warning! You must have a properly filtered telescope to image the Sun! I used the Open Cam smartphone app for Android to capture the images.","3","400","Sun","1.9","`0.000123","100","","Samsung J3 V (Android)","/img/uploads/posts/32524-5fa1d09648a82.jpg","/img/uploads/posts/32525-5fa1d097e7523.jpg","/img/uploads/posts/32525-5fa1d097ed31a.jpg","/img/uploads/posts/32525-5fa1d0980014a.jpg"
"https://www.anecdata.org/posts/view/125701","125701","301847","kotarzewski","Creative Commons Attribution 4.0 International License","https://creativecommons.org/licenses/by/4.0/",50.874466,20.633421,"false","","","2020-10-31 21:20:50+0000","Poland",null,"Świętokrzyskie Voivodeship","Kielce",null,"","10","18","Moon","2.4","253","50","","samsung / SM-G975F","/img/uploads/posts/_apu_1604193846_5f9e0e3641c611604193822954.jpg","","",""
"https://www.anecdata.org/posts/view/125686","125686","301794","Starguy","Creative Commons Attribution 4.0 International License","https://creativecommons.org/licenses/by/4.0/",42.04058,-91.615933,"false","","","2020-10-30 23:51:00+0000","United States","Linn","Iowa","Marion","`52302","Experimenting with some camera settings and apps while the Smart Phone was attached to a Williams Optics 66mm Refractor (f/6). This was about 50 minutes after the nearly Full Moon had risen (99.5% Illuminated). I just happened to capture a jet plane crossing the Moon. This image was captured with the ""Open Camera"" app for Android.","3","400","Moon","1.9","`0.001798","100","","Samsung JV 3","/img/uploads/posts/32345-5f9d847e47e7a.jpg","/img/uploads/posts/32346-5f9d847fa82d7.jpg","/img/uploads/posts/32346-5f9d847faf092.jpg",""
"https://www.anecdata.org/posts/view/118063","118063","289088","Meli","Creative Commons Attribution 4.0 International License","https://creativecommons.org/licenses/by/4.0/",48.88665,8.686992,"false","","","2019-01-21 03:44:57+0000","Germany",null,"Baden-Württemberg","Pforzheim",null,"Binoculars: Celestron Skymaster 15 x 70","15 x 70 Binoculars","None","Lunar eclipse","2.2","`0.072","3200","","HUAWEI / BLN-L21","/img/uploads/posts/_apu_1598903724_5f4d55accc5631598903459897.jpg","","",""
"https://www.anecdata.org/posts/view/118062","118062","289087","Meli","Creative Commons Attribution 4.0 International License","https://creativecommons.org/licenses/by/4.0/",48.886559,8.687283,"false","","","2020-07-13 00:47:50+0000","Germany",null,"Baden-Württemberg","Pforzheim",null,"Telescope: Orion StarBlast II 4.5 EQ","4.5","10","Jupiter and moons","2.2","`0.025","100","","HUAWEI / BLN-L21","/img/uploads/posts/_apu_1598903112_5f4d53485b3371598902985772.jpg","","",""
"https://www.anecdata.org/posts/view/118061","118061","289086","Meli","Creative Commons Attribution 4.0 International License","https://creativecommons.org/licenses/by/4.0/",48.886448,8.686853,"false","","","2020-07-04 02:39:40+0000","Germany",null,"Baden-Württemberg","Pforzheim",null,"Telescope: Orion StarBlast II 4.5 EQ","4.5","10","Saturn","2.2","`0.0125","500","","HUAWEI / BLN-L21","/img/uploads/posts/_apu_1598902824_5f4d5228ca2fc1598902654669.jpg","/img/uploads/posts/_apu_1598902916_5f4d52847ae111598902906981.jpg","",""
"https://www.anecdata.org/posts/view/118060","118060","289085","Meli","Creative Commons Attribution 4.0 International License","https://creativecommons.org/licenses/by/4.0/",48.886555,8.687074,"false","","","2020-07-19 21:44:07+0000","Germany",null,"Baden-Württemberg","Pforzheim",null,"Telescope: Orion StarBlast II 4.5 EQ
Out of focus","4.5","10","Comet C/2020 F3 (NEOWISE)","2.2","3.2","1600","","HUAWEI / BLN-L21","/img/uploads/posts/_apu_1598902566_5f4d5126c59251598902444939.jpg","","",""
"https://www.anecdata.org/posts/view/118059","118059","289084","Meli","Creative Commons Attribution 4.0 International License","https://creativecommons.org/licenses/by/4.0/",48.886398,8.687033,"false","","","2020-07-26 19:41:35+0000","Germany",null,"Baden-Württemberg","Pforzheim",null,"Telescope: Orion StarBlast II 4.5 EQ","4.5","10","Moon","2.2","`0.02","50","","HUAWEI / BLN-L21","/img/uploads/posts/_apu_1598901984_5f4d4ee0d5e3d1598901973874.jpg","","",""
"https://www.anecdata.org/posts/view/108744","108744","267109","orthdf","Creative Commons Attribution 4.0 International License","https://creativecommons.org/licenses/by/4.0/",39.793,-83.858,"false","","","2020-04-19 03:11:18+0000","United States","Greene","Ohio",null,null,"Telescope: Celestron C11 HD Edge f/10 Schmidt-Cassegrain on a CGX-L CGEM tracking mount mount
Eyepiece: Televue Radian 18-mm, 60-degree AFOV
Magnification: 155x
Camera/Automatic Processing: Google Pixel 4XL
Exposure Time: 4 minute exposure (automatic selection)
Image Processing: Adobe Lightroom; Cropped image to incorporate only the pupil; maximized contract to blacken the background.","11","18","Messier 13 - Hercules Globular Cluster","1.7","16.00","804","","Google Pixel 4XL","/img/uploads/posts/24714-5e9be3f47a018.jpg","","",""
"https://www.anecdata.org/posts/view/108577","108577","266598","Walter","Creative Commons Attribution 4.0 International License","https://creativecommons.org/licenses/by/4.0/",45.353164,9.127981,"false","","","2019-06-08 23:30:28+0000","Italy","Milan","Lombardy","Badile","`20084","","14","16","Jupiter","1.8","1/100s","200","","HUAWEI / SNE-LX1","/img/uploads/posts/24593-5e98428691ba71587036786433.jpg","","",""
"https://www.anecdata.org/posts/view/108576","108576","266597","Walter","Creative Commons Attribution 4.0 International License","https://creativecommons.org/licenses/by/4.0/",45.353159,9.12807,"false","","","2019-06-09 01:05:15+0000","Italy","Milan","Lombardy","Badile","`20084","","14","16","Saturn","1.8","1/100s","200","","HUAWEI / SNE-LX1","/img/uploads/posts/24589-5e98414baa3651587036392526.jpg","","",""
"https://www.anecdata.org/posts/view/107965","107965","265185","orthdf","Creative Commons Attribution 4.0 International License","https://creativecommons.org/licenses/by/4.0/",39.793,-83.858,"false","","","2020-04-04 03:27:22+0000","United States","Greene","Ohio",null,null,"- The atmospheric seeing was excellent this evening to see fine features.
- The telescope used for this image was a Celestron C11 HD Edge f/10 SCT on a CGX-L GEM tracking mount.
- Used the Pixel 4XL's normal camera capability to produce the image.  Also applied a 1.6x optical zoom to get an image that did not show vignetting from the eyepiece pupil.  
- The final image was only flipped via image proccessing software to remove the image orientation produced by the optical system.","11","10","Moon - Craters: Plato and Archimedes; Mount Pico","1.7","`0.0116","80","","Google Pixel 4XL","/img/uploads/posts/24225-5e897fab6582b.jpg","","",""
"https://www.anecdata.org/posts/view/107964","107964","265184","orthdf","Creative Commons Attribution 4.0 International License","https://creativecommons.org/licenses/by/4.0/",39.792999,-83.858002,"false","","","2020-04-04 03:26:32+0000","United States","Greene","Ohio",null,null,"- The atmospheric seeing was excellent this evening to see fine features.
- The telescope used for this image was a Celestron C11 HD Edge f/10 SCT on a CGX-L GEM tracking mount.
- Used the Pixel 4XL's normal camera capability to produce the image.  Also applied a 1.6x optical zoom to get an image that did not show vignetting from the eyepiece pupil.  
- The final image was only flipped via image proccessing software to remove the image orientation produced by the optical system.","11","10","Moon - Sinus Iridum; Jura Mountains","1.7","`0.0313","97","","Google Pixel 4XL","/img/uploads/posts/24224-5e897f0347407.jpg","","",""
"https://www.anecdata.org/posts/view/107963","107963","265183","orthdf","Creative Commons Attribution 4.0 International License","https://creativecommons.org/licenses/by/4.0/",39.792999,-83.858002,"false","","","2020-04-04 03:24:49+0000","United States","Greene","Ohio",null,null,"- The atmospheric seeing was excellent this evening to see fine features.
- The telescope used for this image was a Celestron C11 HD Edge f/10 SCT on a CGX-L GEM tracking mount.
- Used the Pixel 4XL's normal camera capability to produce the image.  Also applied a 1.6x optical zoom to get an image that did not show vignetting from the eyepiece pupil.  
- The final image was only flipped via image proccessing software to remove the image orientation produced by the optical system.","11","10","Moon - Crater:  Copernicus and Reinhold; Carpathian Mountains","1.7","`0.020","64","","Google Pixel 4XL","/img/uploads/posts/24223-5e897e4cec1ca.jpg","","",""
"https://www.anecdata.org/posts/view/107962","107962","265182","orthdf","Creative Commons Attribution 4.0 International License","https://creativecommons.org/licenses/by/4.0/",39.792999,-83.858002,"false","","","2020-04-04 03:24:12+0000","United States","Greene","Ohio",null,null,"- The atmospheric seeing was excellent this evening to see fine features.
- The telescope used for this image was a Celestron C11 HD Edge f/10 SCT on a CGX-L GEM tracking mount.
- Used the Pixel 4XL's normal camera capability to produce the image.  Also applied a 1.6x optical zoom to get an image that did not show vignetting from the eyepiece pupil.  
- The final image was only flipped via image proccessing software to remove the image orientation produced by the optical system.","11","10","Moon - Craters:  Kepler and Lansberg","1.7","`0.025","104","","Google Pixel 4XL","/img/uploads/posts/24222-5e897d443949a.jpg","","",""
"https://www.anecdata.org/posts/view/107961","107961","265181","orthdf","Creative Commons Attribution 4.0 International License","https://creativecommons.org/licenses/by/4.0/",39.792999,-83.858002,"false","","","2020-04-04 03:19:28+0000","United States","Greene","Ohio",null,null,"- The atmospheric seeing was excellent this evening to see fine features.
- The telescope used for this image was a Celestron C11 HD Edge f/10 SCT on a CGX-L GEM tracking mount.
- Used the Pixel 4XL's normal camera capability to produce the image.  Also applied a 1.6x optical zoom to get an image that did not show vignetting from the eyepiece pupil.  
- The final image was only flipped via image proccessing software to remove the image orientation produced by the optical system.","11","10","Moon - Craters:  Tycho, Clavius, Longomontanus, and Maginus","1.7","`0.0115","63","","Google Pixel 4XL","/img/uploads/posts/24221-5e897c5ba5db5.jpg","","",""
"https://www.anecdata.org/posts/view/107960","107960","265180","orthdf","Creative Commons Attribution 4.0 International License","https://creativecommons.org/licenses/by/4.0/",39.792999,-83.858002,"false","","","2020-04-04 03:18:30+0000","United States","Greene","Ohio",null,null,"- The atmospheric seeing was excellent this evening to see fine features.
- The telescope used for this image was a Celestron C11 HD Edge f/10 SCT on a CGX-L GEM tracking mount.
- Used the Pixel 4XL's normal camera capability to produce the image.  Also applied a 1.6x optical zoom to get an image that did not show vignetting from the eyepiece pupil.  
- The final image was only flipped via image proccessing software to remove the image orientation produced by the optical system.","11","10","Moon - Crater: Gassendi and Doppelmayer; Mare Humorum","1.7","`0.0238","101","","Google Pixel 4XL","/img/uploads/posts/24220-5e897b787773d.jpg","","",""
"https://www.anecdata.org/posts/view/107959","107959","265179","orthdf","Creative Commons Attribution 4.0 International License","https://creativecommons.org/licenses/by/4.0/",39.793,-83.858,"false","","","2020-04-04 02:09:34+0000","United States","Greene","Ohio",null,null,"Image was taken with a waxing gibbous Moon high in the sky (approximately 80% illumination).  The telescope used for this image was a Celestron C11 HD Edge f/10 SCT on a CGX-L GEM tracking mount.  Used the Pixel 4XL's astrophotography capability to produce an image.  The exposure/processing time for the phone to yield the raw image was 4:00 minutes.  The included raw image shows vignetting from the eyepiece pupil.  Used Adobe Lightroom to crop, flip, rotate, and do some light image processing. I wanted to reduce the effects of moon glow coming from the eyepiece.  The final image shows the nebula oriented match normal vision.","11","18","Messier 42 - Orion Nebula","1.7","16.00","235","","Google Pixel 4XL","/img/uploads/posts/24218-5e8977da0081b.jpg","/img/uploads/posts/24219-5e8977dd1924e.jpg","",""
"https://www.anecdata.org/posts/view/107533","107533","263769","orthdf","Creative Commons Attribution 4.0 International License","https://creativecommons.org/licenses/by/4.0/",39.793371,-83.857674,"false","","","2020-03-26 17:20:13+0000","United States","Greene","Ohio",null,null,"- First usage of the Google astrophotography capability on their smartphone.
- Total exposure and processing time by phone was approximately 3.5 to 4 minutes.
- Light streaks underneath Orion were from a plane turning into my FOV during the last 15 seconds of the exposure.
- Used Adobe Lightroom to only increase the contrast to reduce the effects of light pollution/sky glow along the horizon.","No telescope","N/A","Orion, the Hyades, the Pleiades, and Venus","1.7","15.00","297","","Google / Pixel 4 XL","/img/uploads/posts/23970-5e7ce502974d51585243270546.jpg","","",""
"https://www.anecdata.org/posts/view/106948","106948","261638","Snapmaster","Creative Commons Attribution 4.0 International License","https://creativecommons.org/licenses/by/4.0/",30.034586,-81.520919,"false","","","2020-03-11 10:31:30+0000","United States","St. Johns","Florida",null,null,"I used a free camera app called Light Meter","5.11811","25","Saturn","4.34","8","25600","","Apple / iPhone7","/img/uploads/posts/23636-5e6a1c2ee80c61584012280565.jpg","","",""
"https://www.anecdata.org/posts/view/106620","106620","260869","StenOdenwald","Creative Commons Attribution 4.0 International License","https://creativecommons.org/licenses/by/4.0/",39.012803,-77.087734,"false","","","2020-03-09 01:23:33+0000","United States","Montgomery","Maryland","South Kensington","`20895","This was taken through a 12x telephoto lens (aperture 20 mm) attached to the smartphone","1.0","1.0","Pleiades","1.5","4.0","800","","Galaxy S9+","/img/uploads/posts/23542-5e6627de5e6ce.jpg","","",""
"https://www.anecdata.org/posts/view/106619","106619","260868","StenOdenwald","Creative Commons Attribution 4.0 International License","https://creativecommons.org/licenses/by/4.0/",39.012379,-77.088112,"false","","","2020-03-09 00:21:09+0000","United States","Montgomery","Maryland","South Kensington","`20895-3199","","4.5","24","Pleiades","1.5","4","800","","Galaxy S9+","/img/uploads/posts/23541-5e66273061c8a.jpg","","",""
"https://www.anecdata.org/posts/view/106462","106462","260440","cosmicmark","Creative Commons Attribution 4.0 International License","https://creativecommons.org/licenses/by/4.0/",38.186903,-105.820656,"false","","","2020-03-07 02:35:02+0000","United States","Saguache","Colorado",null,null,"Almost full moon,","16","32","Moon","2.4","3","400","","","/img/uploads/posts/23450-5e63fd3172af0.jpg","/img/uploads/posts/23451-5e63fd3211445.jpg","",""
"https://www.anecdata.org/posts/view/104673","104673","255651","SCollinsAstro","Creative Commons Attribution 4.0 International License","https://creativecommons.org/licenses/by/4.0/",27.907805,-82.809032,"false","","","2020-02-13 11:30:35+0000","United States","Pinellas","Florida","Largo",null,"","8","25","Moon","","","","","Apple / iPhone XS","/img/uploads/posts/22783-5e45593429d891581603114168.jpg","","",""
"https://www.anecdata.org/posts/view/104497","104497","255123","bhushank","Creative Commons Attribution 4.0 International License","https://creativecommons.org/licenses/by/4.0/",18.507242,73.851806,"false","","","2020-02-09 05:31:03+0000","India",null,"Maharashtra","Khadki","`411018","Video of 2000 frames, best 1200 frames stacked in AutoStakkert, wavelet editing in Registax.
Oppo f9 pro cellphone","12","30","Moon","2","1/250","400","","OPPO / CPH1823","/img/uploads/posts/22695-5e3f9fb08a7e01581227919647.jpg","","",""
"https://www.anecdata.org/posts/view/104494","104494","255118","bhushank","Creative Commons Attribution 4.0 International License","https://creativecommons.org/licenses/by/4.0/",18.520128,73.854081,"false","","","2020-02-09 05:10:22+0000","India",null,"Maharashtra","Khadki","`411018","12"" GSO Dobsonian telescope, 9mm Eyepiece, cellphone attached with basic cellphone adapter.
7 images captured, by reducing the brightness, using brightness indicator in default camera app.

Stacked in AutoStakkert.
Color saturation enhanced in GIMP.","12","9","Jupiter","2","Default","","","Redmi 3s prime","/img/uploads/posts/22694-5e3f97e0ea6031581225945377.jpg","","",""
"https://www.anecdata.org/posts/view/104408","104408","254558","StenOdenwald","Creative Commons Attribution 4.0 International License","https://creativecommons.org/licenses/by/4.0/",39.013406,-77.087013,"false","","","2020-02-02 23:36:19+0000","United States","Montgomery","Maryland","South Kensington","`20895","","4.5","24","Venus","1.5","`0.25","11250","","Galaxy s9+","/img/uploads/posts/22561-5e3aa2f677af6.jpg","","",""
"https://www.anecdata.org/posts/view/104407","104407","254557","StenOdenwald","Creative Commons Attribution 4.0 International License","https://creativecommons.org/licenses/by/4.0/",39.013192,-77.087563,"false","","","2020-02-02 23:36:19+0000","United States","Montgomery","Maryland","South Kensington","`20895","","4.5","24","Venus","1.5","`0.1","64","","Galaxy s9+","/img/uploads/posts/22560-5e3aa2976e2bc.jpg","","",""
"https://www.anecdata.org/posts/view/104406","104406","254556","StenOdenwald","Creative Commons Attribution 4.0 International License","https://creativecommons.org/licenses/by/4.0/",39.012766,-77.087288,"false","","","2020-02-03 03:01:00+0000","United States","Montgomery","Maryland","South Kensington","`20895","Shot with no telescope just camera on tripod","`000","2.4","Pleiades","1.5","10","800","","Galaxy s9+","/img/uploads/posts/22559-5e3aa109bc24a.jpg","","",""
"https://www.anecdata.org/posts/view/104405","104405","254555","StenOdenwald","Creative Commons Attribution 4.0 International License","https://creativecommons.org/licenses/by/4.0/",39.012766,-77.087563,"false","","","2020-02-02 23:26:10+0000","United States","Montgomery","Maryland","South Kensington","`20895","Photoshoped with lens blur removal to enhance craters","4.5","24","moon","1.5","`0.0004","64","","Galaxy 9s+","/img/uploads/posts/22558-5e3aa068cbca4.jpg","","",""
"https://www.anecdata.org/posts/view/104140","104140","252907","StenOdenwald","Creative Commons Attribution 4.0 International License","https://creativecommons.org/licenses/by/4.0/",39.017244,-77.094704,"false","","","2019-11-16 12:24:11+0000","United States","Montgomery","Maryland","South Kensington","`20895-3199","exposure 1/578 sec","0","0","Moon","2.2","`0.002","25","","iPhone 6s","/img/uploads/posts/22370-5e2a47f39a45d.jpg","","",""
"https://www.anecdata.org/posts/view/104139","104139","252906","StenOdenwald","Creative Commons Attribution 4.0 International License","https://creativecommons.org/licenses/by/4.0/",39.01767,-77.094429,"false","","","2019-11-26 23:00:52+0000","United States","Montgomery","Maryland","South Kensington","`20895-3199","Photoshoped to improve contrast.","0","0","Cygnus","1.5","10.0","640","","Galaxy s9+","/img/uploads/posts/22369-5e2a46f50d5e4.jpg","","",""
"https://www.anecdata.org/posts/view/104138","104138","252905","StenOdenwald","Creative Commons Attribution 4.0 International License","https://creativecommons.org/licenses/by/4.0/",39.017497,-77.095116,"false","","","2019-11-26 21:17:56+0000","United States","Montgomery","Maryland","South Kensington","`20895-3199","","0","0","Orion","1.5","10.0","800","","Galaxy s9+","/img/uploads/posts/22368-5e2a462016cf8.jpg","","",""
"https://www.anecdata.org/posts/view/104137","104137","252904","StenOdenwald","Creative Commons Attribution 4.0 International License","https://creativecommons.org/licenses/by/4.0/",39.018097,-77.093605,"false","","","2019-11-26 21:15:32+0000","United States","Montgomery","Maryland","South Kensington","`20895-3199","","0","0","Orion","1.5","4.0","800","","Galaxy s9+","/img/uploads/posts/22367-5e2a459cb0f24.jpg","","",""
"https://www.anecdata.org/posts/view/104136","104136","252903","StenOdenwald","Creative Commons Attribution 4.0 International License","https://creativecommons.org/licenses/by/4.0/",39.01867,-77.095528,"false","","","2019-12-11 23:11:59+0000","United States","Montgomery","Maryland","South Kensington","`20895-3199","","0","0","Cygnus and Lyra","1.5","2.0","800","","Galaxy s9+","/img/uploads/posts/22366-5e2a450291dca.jpg","","",""
"https://www.anecdata.org/posts/view/104135","104135","252902","StenOdenwald","Creative Commons Attribution 4.0 International License","https://creativecommons.org/licenses/by/4.0/",39.018097,-77.094429,"false","","","2020-01-06 23:04:59+0000","United States","Montgomery","Maryland","South Kensington","`20895-3199","exposure was 1/350 sec.  Contrast enhanced with Photoshop and a deblurr edge sharpening mask was used.","4.5","12","Moon","1.7","`0.003","64","","Samsung Galaxy s9+","/img/uploads/posts/22365-5e2a43fc3b67f.jpg","","",""
"https://www.anecdata.org/posts/view/102060","102060","244642","StenOdenwald","Creative Commons Attribution 4.0 International License","https://creativecommons.org/licenses/by/4.0/",39.025953,-77.073589,"false","","","2018-01-14 12:10:35+0000","United States","Montgomery","Maryland","Kensington","`20895","Used a 12x telephoto clipped to smartphone. ISO=25 and let camera use its spot-metering mode on limb of moon image to set exposure speed.","1-inch","60","Moon","2.2","`0.003","","","iPhone S6","/img/uploads/posts/21222-5dcfe856d8f47.jpg","","",""
